[{"OBJECT_NAME":"STARLINK-35465","OBJECT_ID":"2025-223T","EPOCH":"2026-03-09T22:28:14.722464","MEAN_MOTION":15.30212263,"ECCENTRICITY":9.687e-5,"INCLINATION":53.1599,"RA_OF_ASC_NODE":293.0143,"ARG_OF_PERICENTER":105.5144,"MEAN_ANOMALY":254.5964,"EPHEMERIS_TYPE":0,"CLASSIFICATION_TYPE":"U","NORAD_CAT_ID":65871,"ELEMENT_SET_NO":999,"REV_AT_EPOCH":2424,"BSTAR":0.00088025211,"MEAN_MOTION_DOT":0.00025812,"MEAN_MOTION_DDOT":0},{"OBJECT_NAME":"CZ-4B DEB","OBJECT_ID":"2010-051E","EPOCH":"2026-03-08T22:01:50.125728","MEAN_MOTION":15.23766972,"ECCENTRICITY":0.00561086,"INCLINATION":97.769,"RA_OF_ASC_NODE":240.5013,"ARG_OF_PERICENTER":301.1291,"MEAN_ANOMALY":58.4449,"EPHEMERIS_TYPE":0,"CLASSIFICATION_TYPE":"U","NORAD_CAT_ID":38184,"ELEMENT_SET_NO":999,"REV_AT_EPOCH":82066,"BSTAR":0.0024566319,"MEAN_MOTION_DOT":0.00062123,"MEAN_MOTION_DDOT":0}]
